{
"type": "FeatureCollection",
"name": "poligonos_maestros",
"crs": { "type": "name", "properties": { "name": "urn:ogc:def:crs:OGC:1.3:CRS84" } },
"features": [
{ "type": "Feature", "properties": { "id": null, "Name": null, "description": null, "timestamp": null, "begin": null, "end": null, "altitudeMode": null, "tessellate": -1, "extrude": 0, "visibility": -1, "drawOrder": null, "icon": null, "begin2": "2", "end2": "59", "SUP ": 665716.0, "SUP HA ": 67.0, "origen": "Poligonos de Olga", "archivo": "49_25_1.kml", "SUP HA": null, "SUP HECTAREA ": null, "snippet": null }, "geometry": { "type": "MultiPolygon", "coordinates": [ [ [ [ -89.195968645937398, 20.056938187241101 ], [ -89.196196675772001, 20.0566690138944 ], [ -89.196122541876903, 20.056451733675701 ], [ -89.196291785248107, 20.055852556549102 ], [ -89.1959528294976, 20.0557948125448 ], [ -89.195383210529499, 20.055748242516501 ], [ -89.195130594023098, 20.055795905976399 ], [ -89.1944304019474, 20.0554390056896 ], [ -89.194236285080905, 20.055219059713998 ], [ -89.193633924331294, 20.0547146303368 ], [ -89.192624355950798, 20.054522594291701 ], [ -89.191819362644495, 20.054030606558801 ], [ -89.191400875347398, 20.054047356431202 ], [ -89.191098684524107, 20.054276078974201 ], [ -89.191106352666395, 20.055592421933699 ], [ -89.190495505932304, 20.0559289234453 ], [ -89.190460738205701, 20.056453816337001 ], [ -89.190461503172401, 20.057183646131602 ], [ -89.190563639934894, 20.0578212715712 ], [ -89.190281277812602, 20.058611419352399 ], [ -89.190807860759406, 20.058579693342502 ], [ -89.191606561078103, 20.058266148569 ], [ -89.192728124526397, 20.058468539788802 ], [ -89.193605260396595, 20.059252788963299 ], [ -89.193494561028501, 20.060131395720301 ], [ -89.193302647735607, 20.060613442678001 ], [ -89.191093516234901, 20.060470065645301 ], [ -89.189327518969606, 20.0597428802472 ], [ -89.187753291491703, 20.058045389503999 ], [ -89.185981665247098, 20.053942146103001 ], [ -89.1867474346177, 20.0537014647891 ], [ -89.187139742785504, 20.053381860333001 ], [ -89.187447986568799, 20.052934415152698 ], [ -89.187942591439295, 20.053127438931199 ], [ -89.187968590608605, 20.053906631104901 ], [ -89.188227943240506, 20.054179334288801 ], [ -89.188577637671202, 20.0540262544386 ], [ -89.188783620833803, 20.053572577271101 ], [ -89.1894982069158, 20.053259904659701 ], [ -89.188922046782494, 20.052603221889399 ], [ -89.188746095358894, 20.0523691353334 ], [ -89.188837144856706, 20.051615498358998 ], [ -89.188469588644907, 20.051300242112202 ], [ -89.1883012016294, 20.051163511802599 ], [ -89.188128039109401, 20.050909791374799 ], [ -89.188480228157005, 20.0503856648339 ], [ -89.189213415271695, 20.049995544280499 ], [ -89.190561464824697, 20.050675808447899 ], [ -89.191163417208898, 20.0504160059889 ], [ -89.191733309078998, 20.050483631453002 ], [ -89.192602224256902, 20.051306014948899 ], [ -89.193491647449704, 20.0517809665835 ], [ -89.195534601333705, 20.052120655837701 ], [ -89.197402304916906, 20.053663601125798 ], [ -89.197740968303293, 20.054922266854799 ], [ -89.197788033293406, 20.0565584627373 ], [ -89.196748202052902, 20.057118340637501 ], [ -89.196751154399195, 20.057117581414602 ], [ -89.195968645937398, 20.056938187241101 ] ] ] ] } },
{ "type": "Feature", "properties": { "id": null, "Name": null, "description": null, "timestamp": null, "begin": null, "end": null, "altitudeMode": null, "tessellate": -1, "extrude": 0, "visibility": -1, "drawOrder": null, "icon": null, "begin2": "2", "end2": "14", "SUP ": 253195.0, "SUP HA ": 25.0, "origen": "Poligonos de Olga", "archivo": "49_25_2.kml", "SUP HA": null, "SUP HECTAREA ": null, "snippet": null }, "geometry": { "type": "MultiPolygon", "coordinates": [ [ [ [ -89.184098685162098, 20.055197152655602 ], [ -89.182899551248994, 20.053495967362402 ], [ -89.182100726228001, 20.052403978026401 ], [ -89.181699016175898, 20.051000008758599 ], [ -89.183696313962898, 20.049602544281399 ], [ -89.185304612515296, 20.049103995242501 ], [ -89.187403196684997, 20.049502522976599 ], [ -89.188196448041893, 20.049501736705398 ], [ -89.187501712310294, 20.0504044604976 ], [ -89.187198758794196, 20.0513023345531 ], [ -89.186602119353495, 20.051698073964801 ], [ -89.186199672370805, 20.0530035983052 ], [ -89.186302112109999, 20.053499067445902 ], [ -89.184098685162098, 20.055197152655602 ] ] ] ] } },
{ "type": "Feature", "properties": { "id": null, "Name": null, "description": null, "timestamp": null, "begin": null, "end": null, "altitudeMode": null, "tessellate": -1, "extrude": 0, "visibility": -1, "drawOrder": null, "icon": null, "begin2": "2", "end2": "95", "SUP ": null, "SUP HA ": null, "origen": "Poligonos de Olga", "archivo": "49_25_3.kml", "SUP HA": 1019006.0, "SUP HECTAREA ": 102.0, "snippet": null }, "geometry": { "type": "MultiPolygon", "coordinates": [ [ [ [ -89.215753850934703, 20.027284298381801 ], [ -89.215159906166903, 20.026496967400401 ], [ -89.214086356539099, 20.026943914865502 ], [ -89.213340300059599, 20.027576420458399 ], [ -89.214279587214307, 20.0284587820904 ], [ -89.214031615671999, 20.029175370872998 ], [ -89.213097889155094, 20.0286903231442 ], [ -89.212442759478904, 20.0283101639146 ], [ -89.212156509735394, 20.0283408377245 ], [ -89.211776612491406, 20.028508153918299 ], [ -89.211121155031407, 20.028787291215401 ], [ -89.210449193772803, 20.028569901195102 ], [ -89.210658459069606, 20.027817673873699 ], [ -89.211227546332097, 20.027512523581599 ], [ -89.211937922681898, 20.027061101754299 ], [ -89.212218103256006, 20.026596993753301 ], [ -89.212686963663103, 20.025958928060302 ], [ -89.213210039551697, 20.025780788116901 ], [ -89.213281667665598, 20.025436696403801 ], [ -89.212619778784102, 20.0252553135422 ], [ -89.212286395944503, 20.0253317338545 ], [ -89.211626024462802, 20.0252587058676 ], [ -89.211146044665298, 20.0251021379223 ], [ -89.210462019882797, 20.024704267716601 ], [ -89.2096301824389, 20.024669499815001 ], [ -89.209095531589995, 20.024703269909299 ], [ -89.208700946877798, 20.025186864578199 ], [ -89.208170490623601, 20.026205012193699 ], [ -89.207899852276796, 20.026668995632001 ], [ -89.206386581880807, 20.0284761093979 ], [ -89.206286121827702, 20.028125133809102 ], [ -89.205987794885502, 20.027975318310201 ], [ -89.205682434738804, 20.028006219955699 ], [ -89.205612403854502, 20.0277813054796 ], [ -89.205532440850405, 20.0275294202611 ], [ -89.204952379944402, 20.027048948961799 ], [ -89.204695926249499, 20.027160522836901 ], [ -89.204473910661605, 20.027000722071499 ], [ -89.203988153937601, 20.027115151808498 ], [ -89.203983133047998, 20.0274403486865 ], [ -89.204037830878804, 20.027936400285501 ], [ -89.204176755193799, 20.028304961390798 ], [ -89.2044361081971, 20.0284010766193 ], [ -89.204903389571299, 20.028332033139399 ], [ -89.205391543302298, 20.0283891693004 ], [ -89.205437195864505, 20.028921458791601 ], [ -89.205009894678298, 20.029116446553601 ], [ -89.204779077377907, 20.0290109451776 ], [ -89.204179148174603, 20.0284765302182 ], [ -89.203644985284001, 20.028546404904201 ], [ -89.2030141450591, 20.028536198258902 ], [ -89.202238362473906, 20.0290967791173 ], [ -89.202101212167094, 20.0295410306015 ], [ -89.201705461517705, 20.029943343005701 ], [ -89.202139565152706, 20.030235979904798 ], [ -89.202618547777604, 20.0303203320248 ], [ -89.202846344733203, 20.030209117497002 ], [ -89.203139637721804, 20.029997740434801 ], [ -89.203502581208596, 20.029984188634 ], [ -89.203809331262406, 20.030052619687801 ], [ -89.203911173033305, 20.030502926332598 ], [ -89.203802942188005, 20.0309648815164 ], [ -89.2038429234739, 20.031090824528 ], [ -89.203714071810197, 20.031444658497101 ], [ -89.203946907557594, 20.0316946399515 ], [ -89.203892980957306, 20.031939162467399 ], [ -89.204389440651497, 20.031905881982599 ], [ -89.204907529359701, 20.032052960543002 ], [ -89.205770087893697, 20.032231868448001 ], [ -89.207015461890705, 20.032451153575199 ], [ -89.207019340391, 20.0320446881002 ], [ -89.206610734587301, 20.0315259590081 ], [ -89.206460607418705, 20.031040130934201 ], [ -89.206644005101893, 20.030486922227801 ], [ -89.207223800203096, 20.030262933357701 ], [ -89.207645078994105, 20.030320897091102 ], [ -89.207997997896001, 20.030957728222699 ], [ -89.208060877033006, 20.031354328806501 ], [ -89.210996684140795, 20.032184680909001 ], [ -89.211322928674306, 20.032279949022701 ], [ -89.211811853670199, 20.032391245386201 ], [ -89.212759018221206, 20.032469714315202 ], [ -89.213133727863294, 20.0332959210571 ], [ -89.213350380682598, 20.033753814674 ], [ -89.213704660752995, 20.033803569879801 ], [ -89.214414551839496, 20.034679766511601 ], [ -89.215091988325895, 20.035285422527799 ], [ -89.215920587171894, 20.035085382937801 ], [ -89.216480206669203, 20.035466722960599 ], [ -89.217034582971294, 20.036155195675299 ], [ -89.217674750506205, 20.036147169807599 ], [ -89.2182110836833, 20.036230758290301 ], [ -89.218309845506198, 20.035777947862702 ], [ -89.219168581447093, 20.032281042378699 ], [ -89.215753850934703, 20.027284298381801 ] ] ] ] } },
{ "type": "Feature", "properties": { "id": null, "Name": null, "description": null, "timestamp": null, "begin": null, "end": null, "altitudeMode": null, "tessellate": -1, "extrude": 0, "visibility": -1, "drawOrder": null, "icon": null, "begin2": "2", "end2": "122", "SUP ": null, "SUP HA ": null, "origen": "Poligonos de Olga", "archivo": "49_25_4.kml", "SUP HA": null, "SUP HECTAREA ": null, "snippet": null }, "geometry": { "type": "MultiPolygon", "coordinates": [ [ [ [ -89.202160000090998, 20.0248099961901 ], [ -89.202169999954506, 20.024830002996499 ], [ -89.202199999592196, 20.024969997516401 ], [ -89.2021100001718, 20.0250599967782 ], [ -89.201829999531597, 20.0252699959652 ], [ -89.201670000106304, 20.0253699969454 ], [ -89.201630000274903, 20.025499997642999 ], [ -89.2014700002631, 20.025649996984601 ], [ -89.201390000087898, 20.025869997708099 ], [ -89.2011900003655, 20.025950003453701 ], [ -89.201230000419997, 20.0260999981043 ], [ -89.201160000343293, 20.026230001661698 ], [ -89.201249999864999, 20.026379997452899 ], [ -89.201350000357706, 20.026469998793399 ], [ -89.201380000093195, 20.026560003988902 ], [ -89.201449999992604, 20.026730000409898 ], [ -89.20139000028, 20.026809998535899 ], [ -89.201289999625004, 20.026879999690902 ], [ -89.201039999706495, 20.026970002157601 ], [ -89.200530000076796, 20.027470000000999 ], [ -89.199950000320101, 20.027759998928801 ], [ -89.199260000015599, 20.027619999542999 ], [ -89.198059999836403, 20.0271199968637 ], [ -89.196709999779799, 20.026760003279701 ], [ -89.196299999581797, 20.0268300028639 ], [ -89.195820000133494, 20.026940003960501 ], [ -89.195750000045706, 20.027359999722101 ], [ -89.195249999940998, 20.027700001234599 ], [ -89.1948399995145, 20.027689996192802 ], [ -89.194290000071803, 20.027559999264799 ], [ -89.194179999773198, 20.027869998789701 ], [ -89.194230000016105, 20.028149998111498 ], [ -89.194669999596101, 20.028269997913299 ], [ -89.194809999642203, 20.028479996883899 ], [ -89.194700000010201, 20.028850002292401 ], [ -89.194990000420503, 20.0293299988776 ], [ -89.195069999643707, 20.029750002924199 ], [ -89.195250000149002, 20.030019998348699 ], [ -89.195699999790094, 20.029900002166801 ], [ -89.196080000153501, 20.029670002604099 ], [ -89.196230000484604, 20.029410000951799 ], [ -89.195920000205604, 20.028980000719901 ], [ -89.1955800000419, 20.028900001344599 ], [ -89.195430000428701, 20.028780000127 ], [ -89.195470000103796, 20.028590003821201 ], [ -89.195630000016806, 20.028329995975898 ], [ -89.195929999808797, 20.0284499958236 ], [ -89.196099999745002, 20.028509995651699 ], [ -89.196149999727695, 20.028739995491801 ], [ -89.1962999998904, 20.028929999545198 ], [ -89.196640000490603, 20.0293800017003 ], [ -89.196950000361795, 20.029330001171399 ], [ -89.197299999687701, 20.029629999270099 ], [ -89.197459999913704, 20.0299200015594 ], [ -89.197730000030305, 20.029919998292701 ], [ -89.197899999701505, 20.029969998288099 ], [ -89.197930000294306, 20.030150003381902 ], [ -89.197939999864204, 20.0303300040779 ], [ -89.197689999476907, 20.030449996108501 ], [ -89.197099999880805, 20.030239998717398 ], [ -89.196889999575902, 20.030510003477801 ], [ -89.197169999635307, 20.030770003163202 ], [ -89.197610000223307, 20.031049997506699 ], [ -89.198079999569003, 20.030929999608301 ], [ -89.198030000141202, 20.031080002431299 ], [ -89.197789999881095, 20.0313900023001 ], [ -89.197949999955199, 20.031640003217198 ], [ -89.198169999561699, 20.0318400003984 ], [ -89.198459999849405, 20.032130002559601 ], [ -89.198720000310203, 20.0326799973822 ], [ -89.198650000180805, 20.0328699967185 ], [ -89.198479999802601, 20.0329800003286 ], [ -89.198250000414106, 20.032900003500899 ], [ -89.197859999948193, 20.0320999956154 ], [ -89.197470000009503, 20.031710000148902 ], [ -89.197159999931003, 20.031630002001702 ], [ -89.196960000115993, 20.031850001554002 ], [ -89.1970399998538, 20.032429997751699 ], [ -89.197099999666307, 20.0327700033796 ], [ -89.196749999866299, 20.032979998420601 ], [ -89.196599999817593, 20.033060002063799 ], [ -89.196069999576807, 20.0325700016162 ], [ -89.196150000336303, 20.031819995568 ], [ -89.195890000070307, 20.03134999748 ], [ -89.195430000037902, 20.0311200016661 ], [ -89.194830000023998, 20.030839999824199 ], [ -89.194309999896106, 20.030719999911099 ], [ -89.191740000432702, 20.028980001910501 ], [ -89.191619999499295, 20.027849995860699 ], [ -89.190989999608107, 20.0268500019471 ], [ -89.190360000191504, 20.026189998632098 ], [ -89.190720000314101, 20.022859998976301 ], [ -89.1932599996628, 20.023080002456201 ], [ -89.192950000249098, 20.024010004121799 ], [ -89.193229999837399, 20.0243700001128 ], [ -89.193859999955293, 20.024200001688701 ], [ -89.194360000469402, 20.024140000981198 ], [ -89.194670000444205, 20.0239400001017 ], [ -89.194860000126596, 20.0232499989982 ], [ -89.195400000023298, 20.023240003936401 ], [ -89.196120000133504, 20.023280002913101 ], [ -89.197279999726206, 20.0233500029094 ], [ -89.198339999636403, 20.0236600043146 ], [ -89.198860000216499, 20.023979997445899 ], [ -89.199140000489194, 20.0248000041612 ], [ -89.199670000438999, 20.025189999997799 ], [ -89.199879999843404, 20.025300003437099 ], [ -89.200090000393104, 20.0251999964396 ], [ -89.200149999927902, 20.025219995830501 ], [ -89.200279999695098, 20.024940000546799 ], [ -89.200220000152996, 20.024679997340801 ], [ -89.200099999647904, 20.0241699977528 ], [ -89.200370000419596, 20.024189996078501 ], [ -89.200499999763196, 20.024359996607199 ], [ -89.200759999941695, 20.024680001482199 ], [ -89.200910000329401, 20.024610001987199 ], [ -89.201230000060406, 20.024689996618701 ], [ -89.201410000450494, 20.0247500025886 ], [ -89.201460000400303, 20.024659995545498 ], [ -89.2018400002855, 20.024749999092698 ], [ -89.202160000090998, 20.0248099961901 ] ] ] ] } },
{ "type": "Feature", "properties": { "id": "ID_00000", "Name": "1", "description": "<html xmlns:fo=\"http://www.w3.org/1999/XSL/Format\" xmlns:msxsl=\"urn:schemas-microsoft-com:xslt\">\n\n<head>\n\n<META http-equiv=\"Content-Type\" content=\"text/html\">\n\n<meta http-equiv=\"content-type\" content=\"text/html; charset=UTF-8\">\n\n</head>\n\n<body style=\"margin:0px 0px 0px 0px;overflow:auto;background:#FFFFFF;\">\n\n<table style=\"font-family:Arial,Verdana,Times;font-size:12px;text-align:left;width:100%;border-collapse:collapse;padding:3px 3px 3px 3px\">\n\n<tr style=\"text-align:center;font-weight:bold;background:#9CBCE2\">\n\n<td>1</td>\n\n</tr>\n\n<tr>\n\n<td>\n\n<table style=\"font-family:Arial,Verdana,Times;font-size:12px;text-align:left;width:100%;border-spacing:0px; padding:3px 3px 3px 3px\">\n\n<tr>\n\n<td>FID</td>\n\n<td>0</td>\n\n</tr>\n\n<tr bgcolor=\"#D4E4F3\">\n\n<td>id</td>\n\n<td>1</td>\n\n</tr>\n\n<tr>\n\n<td>Sup. has</td>\n\n<td>6.07</td>\n\n</tr>\n\n</table>\n\n</td>\n\n</tr>\n\n</table>\n\n</body>\n\n</html>\n\n", "timestamp": null, "begin": null, "end": null, "altitudeMode": "clampToGround", "tessellate": -1, "extrude": 0, "visibility": -1, "drawOrder": null, "icon": null, "begin2": null, "end2": null, "SUP ": null, "SUP HA ": null, "origen": "Poligonos de Olga", "archivo": "60_25_POL. RECIENTE.kmz", "SUP HA": null, "SUP HECTAREA ": null, "snippet": "" }, "geometry": { "type": "MultiPolygon", "coordinates": [ [ [ [ -89.354265354373524, 19.82162039830299, 0.0 ], [ -89.357344216081543, 19.821563801499082, 0.0 ], [ -89.357677668604467, 19.81997477239965, 0.0 ], [ -89.354316256534617, 19.81995759437449, 0.0 ], [ -89.354265354373524, 19.82162039830299, 0.0 ] ] ] ] } },
{ "type": "Feature", "properties": { "id": "ID_00000", "Name": "1", "description": "<html xmlns:fo=\"http://www.w3.org/1999/XSL/Format\" xmlns:msxsl=\"urn:schemas-microsoft-com:xslt\">\n\n<head>\n\n<META http-equiv=\"Content-Type\" content=\"text/html\">\n\n<meta http-equiv=\"content-type\" content=\"text/html; charset=UTF-8\">\n\n</head>\n\n<body style=\"margin:0px 0px 0px 0px;overflow:auto;background:#FFFFFF;\">\n\n<table style=\"font-family:Arial,Verdana,Times;font-size:12px;text-align:left;width:100%;border-collapse:collapse;padding:3px 3px 3px 3px\">\n\n<tr style=\"text-align:center;font-weight:bold;background:#9CBCE2\">\n\n<td>1</td>\n\n</tr>\n\n<tr>\n\n<td>\n\n<table style=\"font-family:Arial,Verdana,Times;font-size:12px;text-align:left;width:100%;border-spacing:0px; padding:3px 3px 3px 3px\">\n\n<tr>\n\n<td>FID</td>\n\n<td>0</td>\n\n</tr>\n\n<tr bgcolor=\"#D4E4F3\">\n\n<td>id</td>\n\n<td>1</td>\n\n</tr>\n\n<tr>\n\n<td>Sup. has</td>\n\n<td>61.59</td>\n\n</tr>\n\n</table>\n\n</td>\n\n</tr>\n\n</table>\n\n</body>\n\n</html>\n\n", "timestamp": null, "begin": null, "end": null, "altitudeMode": "clampToGround", "tessellate": -1, "extrude": 0, "visibility": -1, "drawOrder": null, "icon": null, "begin2": null, "end2": null, "SUP ": null, "SUP HA ": null, "origen": "Poligonos de Olga", "archivo": "60_25_POL1.kmz", "SUP HA": null, "SUP HECTAREA ": null, "snippet": "" }, "geometry": { "type": "MultiPolygon", "coordinates": [ [ [ [ -89.36684054315954, 19.827267637815211, 0.0 ], [ -89.374585430132413, 19.827291008859511, 0.0 ], [ -89.375616174264593, 19.822587738175471, 0.0 ], [ -89.3743668648614, 19.821908550126938, 0.0 ], [ -89.374308135511683, 19.82022557064608, 0.0 ], [ -89.368032059949641, 19.820120788446498, 0.0 ], [ -89.36684054315954, 19.827267637815211, 0.0 ] ] ] ] } },
{ "type": "Feature", "properties": { "id": "ID_00000", "Name": "1", "description": "<html xmlns:fo=\"http://www.w3.org/1999/XSL/Format\" xmlns:msxsl=\"urn:schemas-microsoft-com:xslt\">\n\n<head>\n\n<META http-equiv=\"Content-Type\" content=\"text/html\">\n\n<meta http-equiv=\"content-type\" content=\"text/html; charset=UTF-8\">\n\n</head>\n\n<body style=\"margin:0px 0px 0px 0px;overflow:auto;background:#FFFFFF;\">\n\n<table style=\"font-family:Arial,Verdana,Times;font-size:12px;text-align:left;width:100%;border-collapse:collapse;padding:3px 3px 3px 3px\">\n\n<tr style=\"text-align:center;font-weight:bold;background:#9CBCE2\">\n\n<td>1</td>\n\n</tr>\n\n<tr>\n\n<td>\n\n<table style=\"font-family:Arial,Verdana,Times;font-size:12px;text-align:left;width:100%;border-spacing:0px; padding:3px 3px 3px 3px\">\n\n<tr>\n\n<td>FID</td>\n\n<td>0</td>\n\n</tr>\n\n<tr bgcolor=\"#D4E4F3\">\n\n<td>id</td>\n\n<td>1</td>\n\n</tr>\n\n<tr>\n\n<td>Sup. has</td>\n\n<td>35.583</td>\n\n</tr>\n\n</table>\n\n</td>\n\n</tr>\n\n</table>\n\n</body>\n\n</html>\n\n", "timestamp": null, "begin": null, "end": null, "altitudeMode": "clampToGround", "tessellate": -1, "extrude": 0, "visibility": -1, "drawOrder": null, "icon": null, "begin2": null, "end2": null, "SUP ": null, "SUP HA ": null, "origen": "Poligonos de Olga", "archivo": "60_25_POL2.kmz", "SUP HA": null, "SUP HECTAREA ": null, "snippet": "" }, "geometry": { "type": "MultiPolygon", "coordinates": [ [ [ [ -89.352573013403727, 19.81982743030801, 0.0 ], [ -89.352282205877458, 19.82201732648398, 0.0 ], [ -89.352891783437016, 19.823052461455649, 0.0 ], [ -89.352818426265046, 19.823841924353822, 0.0 ], [ -89.352664725523837, 19.824079461863001, 0.0 ], [ -89.352626300338528, 19.824537070888042, 0.0 ], [ -89.352783494278427, 19.824760635602559, 0.0 ], [ -89.352773014682413, 19.824889883953141, 0.0 ], [ -89.35262979353719, 19.82502611870105, 0.0 ], [ -89.352594861550543, 19.82520776503161, 0.0 ], [ -89.352409722021335, 19.825399890958149, 0.0 ], [ -89.352140745724171, 19.825455782136778, 0.0 ], [ -89.351940126791646, 19.82703064151864, 0.0 ], [ -89.35430068187253, 19.827127614325139, 0.0 ], [ -89.356174631496813, 19.827145446025721, 0.0 ], [ -89.357677668604467, 19.81997477239965, 0.0 ], [ -89.354316256534617, 19.81995759437449, 0.0 ], [ -89.354265354373524, 19.821620398303001, 0.0 ], [ -89.354149089210168, 19.821584342605579, 0.0 ], [ -89.353866951539587, 19.821349729036829, 0.0 ], [ -89.353852931182061, 19.8211158113502, 0.0 ], [ -89.353789489193815, 19.820981782894489, 0.0 ], [ -89.353722785507202, 19.82091292747603, 0.0 ], [ -89.353604440256746, 19.820895713621429, 0.0 ], [ -89.353356991096661, 19.82090862401239, 0.0 ], [ -89.35319991467334, 19.820852678984899, 0.0 ], [ -89.35306435556825, 19.820764457980012, 0.0 ], [ -89.35301701746809, 19.820714968148, 0.0 ], [ -89.35306435556825, 19.820454608596979, 0.0 ], [ -89.353100935009323, 19.82033841507835, 0.0 ], [ -89.353238645846218, 19.820194249045961, 0.0 ], [ -89.353305349532832, 19.820073752063681, 0.0 ], [ -89.353337625510221, 19.819912372176692, 0.0 ], [ -89.352573013403727, 19.81982743030801, 0.0 ] ] ] ] } },
{ "type": "Feature", "properties": { "id": "ID_00000", "Name": "0", "description": "<html xmlns:fo=\"http://www.w3.org/1999/XSL/Format\" xmlns:msxsl=\"urn:schemas-microsoft-com:xslt\">\n\n<head>\n\n<META http-equiv=\"Content-Type\" content=\"text/html\">\n\n<meta http-equiv=\"content-type\" content=\"text/html; charset=UTF-8\">\n\n</head>\n\n<body style=\"margin:0px 0px 0px 0px;overflow:auto;background:#FFFFFF;\">\n\n<table style=\"font-family:Arial,Verdana,Times;font-size:12px;text-align:left;width:100%;border-collapse:collapse;padding:3px 3px 3px 3px\">\n\n<tr style=\"text-align:center;font-weight:bold;background:#9CBCE2\">\n\n<td>0</td>\n\n</tr>\n\n<tr>\n\n<td>\n\n<table style=\"font-family:Arial,Verdana,Times;font-size:12px;text-align:left;width:100%;border-spacing:0px; padding:3px 3px 3px 3px\">\n\n<tr>\n\n<td>FID</td>\n\n<td>0</td>\n\n</tr>\n\n<tr bgcolor=\"#D4E4F3\">\n\n<td>Id</td>\n\n<td>0</td>\n\n</tr>\n\n<tr>\n\n<td>SUPERFICIE</td>\n\n<td>117.234</td>\n\n</tr>\n\n</table>\n\n</td>\n\n</tr>\n\n</table>\n\n</body>\n\n</html>\n\n", "timestamp": null, "begin": null, "end": null, "altitudeMode": "clampToGround", "tessellate": -1, "extrude": 0, "visibility": -1, "drawOrder": null, "icon": null, "begin2": null, "end2": null, "SUP ": null, "SUP HA ": null, "origen": "Poligonos de Olga", "archivo": "POL_DGIVF.kmz", "SUP HA": null, "SUP HECTAREA ": null, "snippet": "" }, "geometry": { "type": "MultiPolygon", "coordinates": [ [ [ [ -89.233363694787869, 20.038164421956729, 0.0 ], [ -89.234081993645276, 20.038450674656819, 0.0 ], [ -89.235244980787471, 20.037853908115721, 0.0 ], [ -89.235579578441602, 20.03731565490142, 0.0 ], [ -89.235420312848248, 20.036197509363401, 0.0 ], [ -89.237089722722061, 20.035847660140391, 0.0 ], [ -89.237811457433068, 20.035884408899602, 0.0 ], [ -89.238025461738616, 20.03557011973378, 0.0 ], [ -89.238429502592695, 20.034504636941289, 0.0 ], [ -89.238329568239266, 20.033541805913771, 0.0 ], [ -89.237884439693332, 20.03288047343565, 0.0 ], [ -89.237022517707572, 20.032626847833161, 0.0 ], [ -89.235120740028577, 20.03098424169568, 0.0 ], [ -89.234731468966586, 20.030324993366332, 0.0 ], [ -89.234962781487994, 20.029572377883799, 0.0 ], [ -89.231771574959694, 20.02744097970929, 0.0 ], [ -89.228842097272207, 20.02705849055825, 0.0 ], [ -89.227226515740853, 20.027954971422272, 0.0 ], [ -89.224807014933603, 20.028223120065, 0.0 ], [ -89.224349138609398, 20.027492907494612, 0.0 ], [ -89.223174764696793, 20.028277054632341, 0.0 ], [ -89.223033747288682, 20.029630829932341, 0.0 ], [ -89.222671979202275, 20.031011492799429, 0.0 ], [ -89.222745421327858, 20.03197295787205, 0.0 ], [ -89.223403118211394, 20.03256004317506, 0.0 ], [ -89.226161630085471, 20.03365400262123, 0.0 ], [ -89.228750126581531, 20.034561934333059, 0.0 ], [ -89.23074700645202, 20.035969769285611, 0.0 ], [ -89.231223355427247, 20.03675888263782, 0.0 ], [ -89.233230906133727, 20.03743771947617, 0.0 ], [ -89.233363694787869, 20.038164421956729, 0.0 ] ] ] ] } },
{ "type": "Feature", "properties": { "id": "ID_00000", "Name": "1", "description": "<html xmlns:fo=\"http://www.w3.org/1999/XSL/Format\" xmlns:msxsl=\"urn:schemas-microsoft-com:xslt\">\n\n<head>\n\n<META http-equiv=\"Content-Type\" content=\"text/html\">\n\n<meta http-equiv=\"content-type\" content=\"text/html; charset=UTF-8\">\n\n</head>\n\n<body style=\"margin:0px 0px 0px 0px;overflow:auto;background:#FFFFFF;\">\n\n<table style=\"font-family:Arial,Verdana,Times;font-size:12px;text-align:left;width:100%;border-collapse:collapse;padding:3px 3px 3px 3px\">\n\n<tr style=\"text-align:center;font-weight:bold;background:#9CBCE2\">\n\n<td>1</td>\n\n</tr>\n\n<tr>\n\n<td>\n\n<table style=\"font-family:Arial,Verdana,Times;font-size:12px;text-align:left;width:100%;border-spacing:0px; padding:3px 3px 3px 3px\">\n\n<tr>\n\n<td>FID</td>\n\n<td>0</td>\n\n</tr>\n\n<tr bgcolor=\"#D4E4F3\">\n\n<td>id</td>\n\n<td>1</td>\n\n</tr>\n\n<tr>\n\n<td>Sup. has</td>\n\n<td>6.07</td>\n\n</tr>\n\n</table>\n\n</td>\n\n</tr>\n\n</table>\n\n</body>\n\n</html>\n\n", "timestamp": null, "begin": null, "end": null, "altitudeMode": "clampToGround", "tessellate": -1, "extrude": 0, "visibility": -1, "drawOrder": null, "icon": null, "begin2": null, "end2": null, "SUP ": null, "SUP HA ": null, "origen": "Poligonos de Olga", "archivo": "60_25_POL. RECIENTE.kmz", "SUP HA": null, "SUP HECTAREA ": null, "snippet": "" }, "geometry": { "type": "MultiPolygon", "coordinates": [ [ [ [ -89.354265354373524, 19.82162039830299, 0.0 ], [ -89.357344216081543, 19.821563801499082, 0.0 ], [ -89.357677668604467, 19.81997477239965, 0.0 ], [ -89.354316256534617, 19.81995759437449, 0.0 ], [ -89.354265354373524, 19.82162039830299, 0.0 ] ] ] ] } },
{ "type": "Feature", "properties": { "id": null, "Name": "Polígono general", "description": null, "timestamp": null, "begin": null, "end": null, "altitudeMode": null, "tessellate": -1, "extrude": 0, "visibility": -1, "drawOrder": null, "icon": null, "begin2": null, "end2": null, "SUP ": null, "SUP HA ": null, "origen": "Poligonos de Pao", "archivo": "poligonos_bacalar_0271.kml", "SUP HA": null, "SUP HECTAREA ": null, "snippet": null }, "geometry": { "type": "Polygon", "coordinates": [ [ [ -88.656344760134829, 18.971549007379899, 0.0 ], [ -88.656284964230068, 18.970302751332447, 0.0 ], [ -88.654348322214872, 18.970365234098825, 0.0 ], [ -88.654454690212205, 18.971520728457516, 0.0 ], [ -88.655699059662552, 18.97155478124483, 0.0 ], [ -88.65576791994944, 18.974680177384148, 0.0 ], [ -88.655647528041072, 18.976912828278223, 0.0 ], [ -88.655612421132474, 18.979126646723472, 0.0 ], [ -88.656476291374702, 18.979091815137366, 0.0 ], [ -88.656465038495938, 18.977953542515305, 0.0 ], [ -88.657110406003596, 18.977911628478481, 0.0 ], [ -88.657123666553986, 18.971569143527354, 0.0 ], [ -88.656344760134829, 18.971549007379899, 0.0 ] ] ] } },
{ "type": "Feature", "properties": { "id": null, "Name": "Subpolígono 1", "description": null, "timestamp": null, "begin": null, "end": null, "altitudeMode": null, "tessellate": -1, "extrude": 0, "visibility": -1, "drawOrder": null, "icon": null, "begin2": null, "end2": null, "SUP ": null, "SUP HA ": null, "origen": "Poligonos de Pao", "archivo": "poligonos_bacalar_0271.kml", "SUP HA": null, "SUP HECTAREA ": null, "snippet": null }, "geometry": { "type": "Polygon", "coordinates": [ [ [ -88.656344760134829, 18.971549007379899, 0.0 ], [ -88.656284964230068, 18.970302751332447, 0.0 ], [ -88.654348322214872, 18.970365234098825, 0.0 ], [ -88.654454690212205, 18.971520728457516, 0.0 ], [ -88.656344760134829, 18.971549007379899, 0.0 ] ] ] } },
{ "type": "Feature", "properties": { "id": null, "Name": "Subpolígono 2", "description": null, "timestamp": null, "begin": null, "end": null, "altitudeMode": null, "tessellate": -1, "extrude": 0, "visibility": -1, "drawOrder": null, "icon": null, "begin2": null, "end2": null, "SUP ": null, "SUP HA ": null, "origen": "Poligonos de Pao", "archivo": "poligonos_bacalar_0271.kml", "SUP HA": null, "SUP HECTAREA ": null, "snippet": null }, "geometry": { "type": "Polygon", "coordinates": [ [ [ -88.655699059662552, 18.97155478124483, 0.0 ], [ -88.65576791994944, 18.974680177384148, 0.0 ], [ -88.65633766627343, 18.974675081895693, 0.0 ], [ -88.656230813009643, 18.971550026460658, 0.0 ], [ -88.655699059662552, 18.97155478124483, 0.0 ] ] ] } },
{ "type": "Feature", "properties": { "id": null, "Name": "Subpolígono 3", "description": null, "timestamp": null, "begin": null, "end": null, "altitudeMode": null, "tessellate": -1, "extrude": 0, "visibility": -1, "drawOrder": null, "icon": null, "begin2": null, "end2": null, "SUP ": null, "SUP HA ": null, "origen": "Poligonos de Pao", "archivo": "poligonos_bacalar_0271.kml", "SUP HA": null, "SUP HECTAREA ": null, "snippet": null }, "geometry": { "type": "Polygon", "coordinates": [ [ [ -88.656230813009643, 18.971550026460658, 0.0 ], [ -88.657123666553986, 18.971569143527354, 0.0 ], [ -88.657164718736851, 18.973800349920136, 0.0 ], [ -88.656365471313379, 18.973644875891807, 0.0 ], [ -88.656230813009643, 18.971550026460658, 0.0 ] ] ] } },
{ "type": "Feature", "properties": { "id": null, "Name": "Subpolígono 4", "description": null, "timestamp": null, "begin": null, "end": null, "altitudeMode": null, "tessellate": -1, "extrude": 0, "visibility": -1, "drawOrder": null, "icon": null, "begin2": null, "end2": null, "SUP ": null, "SUP HA ": null, "origen": "Poligonos de Pao", "archivo": "poligonos_bacalar_0271.kml", "SUP HA": null, "SUP HECTAREA ": null, "snippet": null }, "geometry": { "type": "Polygon", "coordinates": [ [ [ -88.657164718736851, 18.973800349920136, 0.0 ], [ -88.656365471313379, 18.973644875891807, 0.0 ], [ -88.656465038495938, 18.977953542515305, 0.0 ], [ -88.657110406003596, 18.977911628478481, 0.0 ], [ -88.657164718736851, 18.973800349920136, 0.0 ] ] ] } },
{ "type": "Feature", "properties": { "id": null, "Name": "Subpolígono 5", "description": null, "timestamp": null, "begin": null, "end": null, "altitudeMode": null, "tessellate": -1, "extrude": 0, "visibility": -1, "drawOrder": null, "icon": null, "begin2": null, "end2": null, "SUP ": null, "SUP HA ": null, "origen": "Poligonos de Pao", "archivo": "poligonos_bacalar_0271.kml", "SUP HA": null, "SUP HECTAREA ": null, "snippet": null }, "geometry": { "type": "Polygon", "coordinates": [ [ [ -88.65576791994944, 18.974680177384148, 0.0 ], [ -88.65633766627343, 18.974675081895693, 0.0 ], [ -88.656416963719479, 18.976933050411606, 0.0 ], [ -88.655647528041072, 18.976912828278223, 0.0 ], [ -88.65576791994944, 18.974680177384148, 0.0 ] ] ] } },
{ "type": "Feature", "properties": { "id": null, "Name": "Subpolígono 6", "description": null, "timestamp": null, "begin": null, "end": null, "altitudeMode": null, "tessellate": -1, "extrude": 0, "visibility": -1, "drawOrder": null, "icon": null, "begin2": null, "end2": null, "SUP ": null, "SUP HA ": null, "origen": "Poligonos de Pao", "archivo": "poligonos_bacalar_0271.kml", "SUP HA": null, "SUP HECTAREA ": null, "snippet": null }, "geometry": { "type": "Polygon", "coordinates": [ [ [ -88.655647528041072, 18.976912828278223, 0.0 ], [ -88.655626180861503, 18.977635796201081, 0.0 ], [ -88.656413093639287, 18.977502271773087, 0.0 ], [ -88.656416963719479, 18.976933050411606, 0.0 ], [ -88.655647528041072, 18.976912828278223, 0.0 ] ] ] } },
{ "type": "Feature", "properties": { "id": null, "Name": "Subpolígono 7", "description": null, "timestamp": null, "begin": null, "end": null, "altitudeMode": null, "tessellate": -1, "extrude": 0, "visibility": -1, "drawOrder": null, "icon": null, "begin2": null, "end2": null, "SUP ": null, "SUP HA ": null, "origen": "Poligonos de Pao", "archivo": "poligonos_bacalar_0271.kml", "SUP HA": null, "SUP HECTAREA ": null, "snippet": null }, "geometry": { "type": "Polygon", "coordinates": [ [ [ -88.655626180861503, 18.977635796201081, 0.0 ], [ -88.656413093639287, 18.977502271773087, 0.0 ], [ -88.656476291374702, 18.979091815137366, 0.0 ], [ -88.655612421132474, 18.979126646723472, 0.0 ], [ -88.655626180861503, 18.977635796201081, 0.0 ] ] ] } },
{ "type": "Feature", "properties": { "id": null, "Name": "Polígono general", "description": null, "timestamp": null, "begin": null, "end": null, "altitudeMode": null, "tessellate": -1, "extrude": 0, "visibility": -1, "drawOrder": null, "icon": null, "begin2": null, "end2": null, "SUP ": null, "SUP HA ": null, "origen": "Poligonos de Pao", "archivo": "poligonos_bacalar_0305.kml", "SUP HA": null, "SUP HECTAREA ": null, "snippet": null }, "geometry": { "type": "Polygon", "coordinates": [ [ [ -88.58590227668337, 18.834878410986036, 0.0 ], [ -88.589756189751, 18.835026272808204, 0.0 ], [ -88.589361160429149, 18.829346578572405, 0.0 ], [ -88.585452907617821, 18.829461179989391, 0.0 ], [ -88.58590227668337, 18.834878410986036, 0.0 ] ] ] } },
{ "type": "Feature", "properties": { "id": null, "Name": "Polígono 1", "description": null, "timestamp": null, "begin": null, "end": null, "altitudeMode": null, "tessellate": -1, "extrude": 0, "visibility": -1, "drawOrder": null, "icon": null, "begin2": null, "end2": null, "SUP ": null, "SUP HA ": null, "origen": "Poligonos de Pao", "archivo": "poligonos_bacalar_0305.kml", "SUP HA": null, "SUP HECTAREA ": null, "snippet": null }, "geometry": { "type": "Polygon", "coordinates": [ [ [ -88.587032138177918, 18.834950107309805, 0.0 ], [ -88.589756189751, 18.835026272808204, 0.0 ], [ -88.589689909407141, 18.834032980052505, 0.0 ], [ -88.587211226066927, 18.829771478092763, 0.0 ], [ -88.585452907617821, 18.829461179989391, 0.0 ], [ -88.585452907617821, 18.829461179989391, 0.0 ], [ -88.585693264240803, 18.832829224474928, 0.0 ], [ -88.586689854311388, 18.832856882300206, 0.0 ], [ -88.587032138177918, 18.834950107309805, 0.0 ] ] ] } },
{ "type": "Feature", "properties": { "id": null, "Name": "Polígono 2", "description": null, "timestamp": null, "begin": null, "end": null, "altitudeMode": null, "tessellate": -1, "extrude": 0, "visibility": -1, "drawOrder": null, "icon": null, "begin2": null, "end2": null, "SUP ": null, "SUP HA ": null, "origen": "Poligonos de Pao", "archivo": "poligonos_bacalar_0305.kml", "SUP HA": null, "SUP HECTAREA ": null, "snippet": null }, "geometry": { "type": "Polygon", "coordinates": [ [ [ -88.58590227668337, 18.834878410986036, 0.0 ], [ -88.585693264240803, 18.832829224474928, 0.0 ], [ -88.586689854311388, 18.832856882300206, 0.0 ], [ -88.587032138177918, 18.834950107309805, 0.0 ], [ -88.58590227668337, 18.834878410986036, 0.0 ] ] ] } },
{ "type": "Feature", "properties": { "id": null, "Name": "Polígono 3", "description": null, "timestamp": null, "begin": null, "end": null, "altitudeMode": null, "tessellate": -1, "extrude": 0, "visibility": -1, "drawOrder": null, "icon": null, "begin2": null, "end2": null, "SUP ": null, "SUP HA ": null, "origen": "Poligonos de Pao", "archivo": "poligonos_bacalar_0305.kml", "SUP HA": null, "SUP HECTAREA ": null, "snippet": null }, "geometry": { "type": "Polygon", "coordinates": [ [ [ -88.589628900338965, 18.833599816871939, 0.0 ], [ -88.587286620324278, 18.829716625507587, 0.0 ], [ -88.587207916794796, 18.829419137851495, 0.0 ], [ -88.589361160429149, 18.829346578572405, 0.0 ], [ -88.589628900338965, 18.833599816871939, 0.0 ] ] ] } },
{ "type": "Feature", "properties": { "id": null, "Name": "Polígono 1", "description": null, "timestamp": null, "begin": null, "end": null, "altitudeMode": null, "tessellate": -1, "extrude": 0, "visibility": -1, "drawOrder": null, "icon": null, "begin2": null, "end2": null, "SUP ": null, "SUP HA ": null, "origen": "Poligonos de Pao", "archivo": "poligonos_calakmul_0154.kml", "SUP HA": null, "SUP HECTAREA ": null, "snippet": null }, "geometry": { "type": "Polygon", "coordinates": [ [ [ -90.231052777777776, 18.471725, 0.0 ], [ -90.228080555555565, 18.471775, 0.0 ], [ -90.227841666666663, 18.469877777777775, 0.0 ], [ -90.230580555555562, 18.469588888888886, 0.0 ], [ -90.231052777777776, 18.471725, 0.0 ] ] ] } },
{ "type": "Feature", "properties": { "id": null, "Name": "Polígono 2", "description": null, "timestamp": null, "begin": null, "end": null, "altitudeMode": null, "tessellate": -1, "extrude": 0, "visibility": -1, "drawOrder": null, "icon": null, "begin2": null, "end2": null, "SUP ": null, "SUP HA ": null, "origen": "Poligonos de Pao", "archivo": "poligonos_calakmul_0154.kml", "SUP HA": null, "SUP HECTAREA ": null, "snippet": null }, "geometry": { "type": "Polygon", "coordinates": [ [ [ -90.228525, 18.46535, 0.0 ], [ -90.228163888888886, 18.465041666666664, 0.0 ], [ -90.22755, 18.464766666666666, 0.0 ], [ -90.228, 18.463338888888888, 0.0 ], [ -90.227113888888894, 18.462563888888887, 0.0 ], [ -90.227325, 18.460891666666665, 0.0 ], [ -90.228702777777784, 18.459444444444443, 0.0 ], [ -90.230363888888888, 18.460016666666665, 0.0 ], [ -90.231586111111113, 18.462316666666666, 0.0 ], [ -90.230241666666672, 18.463272222222223, 0.0 ], [ -90.228525, 18.46535, 0.0 ] ] ] } },
{ "type": "Feature", "properties": { "id": null, "Name": "Sitio inspeccionado", "description": null, "timestamp": null, "begin": null, "end": null, "altitudeMode": null, "tessellate": -1, "extrude": 0, "visibility": -1, "drawOrder": null, "icon": null, "begin2": null, "end2": null, "SUP ": null, "SUP HA ": null, "origen": "Poligonos de Pao", "archivo": "poligonos_carmen_0266 (1).kml", "SUP HA": null, "SUP HECTAREA ": null, "snippet": null }, "geometry": { "type": "Polygon", "coordinates": [ [ [ -91.525735687263335, 18.765408606121067, 0.0 ], [ -91.525055115498162, 18.766225470052209, 0.0 ], [ -91.524892458413092, 18.766386825922606, 0.0 ], [ -91.524305732653872, 18.766228591067772, 0.0 ], [ -91.523747226762111, 18.766097683854341, 0.0 ], [ -91.523453904216225, 18.76601404747101, 0.0 ], [ -91.52324688950911, 18.765822666303567, 0.0 ], [ -91.522641906182315, 18.765582962556657, 0.0 ], [ -91.522718571626882, 18.765493213290895, 0.0 ], [ -91.523785510358806, 18.764968546373197, 0.0 ], [ -91.524714705655612, 18.765012023859185, 0.0 ], [ -91.525735687263335, 18.765408606121067, 0.0 ] ] ] } },
{ "type": "Feature", "properties": { "id": null, "Name": "Polígono 1", "description": null, "timestamp": null, "begin": null, "end": null, "altitudeMode": null, "tessellate": -1, "extrude": 0, "visibility": -1, "drawOrder": null, "icon": null, "begin2": null, "end2": null, "SUP ": null, "SUP HA ": null, "origen": "Poligonos de Pao", "archivo": "poligonos_carmen_0266 (1).kml", "SUP HA": null, "SUP HECTAREA ": null, "snippet": null }, "geometry": { "type": "Polygon", "coordinates": [ [ [ -91.524305732653872, 18.766228591067772, 0.0 ], [ -91.524489088928547, 18.765868617670264, 0.0 ], [ -91.524328632645862, 18.765776995855603, 0.0 ], [ -91.524088131160894, 18.766163624451892, 0.0 ], [ -91.524305732653872, 18.766228591067772, 0.0 ] ] ] } },
{ "type": "Feature", "properties": { "id": null, "Name": "Polígono 2", "description": null, "timestamp": null, "begin": null, "end": null, "altitudeMode": null, "tessellate": -1, "extrude": 0, "visibility": -1, "drawOrder": null, "icon": null, "begin2": null, "end2": null, "SUP ": null, "SUP HA ": null, "origen": "Poligonos de Pao", "archivo": "poligonos_carmen_0266 (1).kml", "SUP HA": null, "SUP HECTAREA ": null, "snippet": null }, "geometry": { "type": "Polygon", "coordinates": [ [ [ -91.525505852399277, 18.765659788049017, 0.0 ], [ -91.525336067959287, 18.765550022450203, 0.0 ], [ -91.525172154871086, 18.765855937087682, 0.0 ], [ -91.525227885589743, 18.765991909623359, 0.0 ], [ -91.525505852399277, 18.765659788049017, 0.0 ] ] ] } },
{ "type": "Feature", "properties": { "id": null, "Name": "Polígono 1", "description": null, "timestamp": null, "begin": null, "end": null, "altitudeMode": null, "tessellate": -1, "extrude": 0, "visibility": -1, "drawOrder": null, "icon": null, "begin2": null, "end2": null, "SUP ": null, "SUP HA ": null, "origen": "Poligonos de Pao", "archivo": "poligono_1_bacalar_00322 (1).kml", "SUP HA": null, "SUP HECTAREA ": null, "snippet": null }, "geometry": { "type": "Polygon", "coordinates": [ [ [ -88.465485457259803, 18.893980447973593, 0.0 ], [ -88.466491695913319, 18.893981546262712, 0.0 ], [ -88.466423628068569, 18.894885626710266, 0.0 ], [ -88.465417383982455, 18.894884528418419, 0.0 ], [ -88.465485457259803, 18.893980447973593, 0.0 ] ] ] } },
{ "type": "Feature", "properties": { "id": null, "Name": "Polígono 2", "description": null, "timestamp": null, "begin": null, "end": null, "altitudeMode": null, "tessellate": -1, "extrude": 0, "visibility": -1, "drawOrder": null, "icon": null, "begin2": null, "end2": null, "SUP ": null, "SUP HA ": null, "origen": "Poligonos de Pao", "archivo": "poligono_2_bacalar_00322 (1).kml", "SUP HA": null, "SUP HECTAREA ": null, "snippet": null }, "geometry": { "type": "Polygon", "coordinates": [ [ [ -88.465417383982455, 18.894884528418419, 0.0 ], [ -88.466423628068569, 18.894885626710266, 0.0 ], [ -88.466365130719993, 18.895798667010343, 0.0 ], [ -88.467305013430448, 18.895809319246982, 0.0 ], [ -88.467318600226861, 18.896279054291774, 0.0 ], [ -88.466388443179795, 18.89629543183359, 0.0 ], [ -88.466367757350099, 18.897190102800028, 0.0 ], [ -88.465389897593852, 18.89717974576266, 0.0 ], [ -88.465417383982455, 18.894884528418419, 0.0 ] ] ] } },
{ "type": "Feature", "properties": { "id": null, "Name": "Polígono 3", "description": null, "timestamp": null, "begin": null, "end": null, "altitudeMode": null, "tessellate": -1, "extrude": 0, "visibility": -1, "drawOrder": null, "icon": null, "begin2": null, "end2": null, "SUP ": null, "SUP HA ": null, "origen": "Poligonos de Pao", "archivo": "poligono_3_bacalar_00322 (2).kml", "SUP HA": null, "SUP HECTAREA ": null, "snippet": null }, "geometry": { "type": "Polygon", "coordinates": [ [ [ -88.466388443179795, 18.89629543183359, 0.0 ], [ -88.467318600226861, 18.896279054291774, 0.0 ], [ -88.467298313080121, 18.897218899060753, 0.0 ], [ -88.466367757350099, 18.897190102800028, 0.0 ], [ -88.466388443179795, 18.89629543183359, 0.0 ] ] ] } },
{ "type": "Feature", "properties": { "id": null, "Name": "Polígono Bacalar", "description": null, "timestamp": null, "begin": null, "end": null, "altitudeMode": null, "tessellate": -1, "extrude": 0, "visibility": -1, "drawOrder": null, "icon": null, "begin2": null, "end2": null, "SUP ": null, "SUP HA ": null, "origen": "Poligonos de Pao", "archivo": "poligono_bacalar_00322 (1).kml", "SUP HA": null, "SUP HECTAREA ": null, "snippet": null }, "geometry": { "type": "Polygon", "coordinates": [ [ [ -88.465485457259803, 18.893980447973593, 0.0 ], [ -88.466491695913319, 18.893981546262712, 0.0 ], [ -88.466365130719993, 18.895798667010343, 0.0 ], [ -88.467305013430448, 18.895809319246982, 0.0 ], [ -88.467288978320937, 18.89723704362563, 0.0 ], [ -88.465390054882903, 18.897197815391156, 0.0 ], [ -88.465417383982455, 18.894884528418419, 0.0 ], [ -88.465485457259803, 18.893980447973593, 0.0 ] ] ] } },
{ "type": "Feature", "properties": { "id": null, "Name": "Polígono Bacalar con vértice calculado", "description": null, "timestamp": null, "begin": null, "end": null, "altitudeMode": null, "tessellate": -1, "extrude": 0, "visibility": -1, "drawOrder": null, "icon": null, "begin2": null, "end2": null, "SUP ": null, "SUP HA ": null, "origen": "Poligonos de Pao", "archivo": "poligono_bacalar_0239.kml", "SUP HA": null, "SUP HECTAREA ": null, "snippet": null }, "geometry": { "type": "Polygon", "coordinates": [ [ [ -88.240653397734633, 18.873659562870671, 0.0 ], [ -88.240983216840249, 18.873332062654232, 0.0 ], [ -88.239917344147656, 18.872959652429611, 0.0 ], [ -88.239587523534212, 18.873287150845663, 0.0 ], [ -88.240653397734633, 18.873659562870671, 0.0 ] ] ] } },
{ "type": "Feature", "properties": { "id": null, "Name": "Polígono Champotón", "description": null, "timestamp": null, "begin": null, "end": null, "altitudeMode": null, "tessellate": -1, "extrude": 0, "visibility": -1, "drawOrder": null, "icon": null, "begin2": null, "end2": null, "SUP ": null, "SUP HA ": null, "origen": "Poligonos de Pao", "archivo": "poligono_champoton_0224.kml", "SUP HA": null, "SUP HECTAREA ": null, "snippet": null }, "geometry": { "type": "Polygon", "coordinates": [ [ [ -90.401972494585621, 19.128244798003426, 0.0 ], [ -90.406838264471318, 19.120854514560577, 0.0 ], [ -90.398758687619022, 19.115665428112123, 0.0 ], [ -90.392447603350789, 19.122520268872272, 0.0 ], [ -90.401972494585621, 19.128244798003426, 0.0 ] ] ] } },
{ "type": "Feature", "properties": { "id": null, "Name": "Polígono adicional Hopelchén", "description": null, "timestamp": null, "begin": null, "end": null, "altitudeMode": null, "tessellate": -1, "extrude": 0, "visibility": -1, "drawOrder": null, "icon": null, "begin2": null, "end2": null, "SUP ": null, "SUP HA ": null, "origen": "Poligonos de Pao", "archivo": "poligono_hopelchen_0307.kml", "SUP HA": null, "SUP HECTAREA ": null, "snippet": null }, "geometry": { "type": "Polygon", "coordinates": [ [ [ -89.290619444444445, 19.017941666666665, 0.0 ], [ -89.286322222222225, 19.019683333333333, 0.0 ], [ -89.31453888888889, 18.977525, 0.0 ], [ -89.309302777777773, 18.96875833333333, 0.0 ], [ -89.399516666666671, 18.991572222222224, 0.0 ], [ -89.290619444444445, 19.017941666666665, 0.0 ] ] ] } },
{ "type": "Feature", "properties": { "id": null, "Name": "Polígono Hopelchén", "description": null, "timestamp": null, "begin": null, "end": null, "altitudeMode": null, "tessellate": -1, "extrude": 0, "visibility": -1, "drawOrder": null, "icon": null, "begin2": null, "end2": null, "SUP ": null, "SUP HA ": null, "origen": "Poligonos de Pao", "archivo": "poligono_hopelchen_101.kml", "SUP HA": null, "SUP HECTAREA ": null, "snippet": null }, "geometry": { "type": "Polygon", "coordinates": [ [ [ -89.795327777777771, 19.768436111111111, 0.0 ], [ -89.799138888888891, 19.763527777777778, 0.0 ], [ -89.795969444444438, 19.761413888888889, 0.0 ], [ -89.790855555555552, 19.76785, 0.0 ], [ -89.795327777777771, 19.768436111111111, 0.0 ] ] ] } },
{ "type": "Feature", "properties": { "id": null, "Name": "Polígono Hopelchén", "description": null, "timestamp": null, "begin": null, "end": null, "altitudeMode": null, "tessellate": -1, "extrude": 0, "visibility": -1, "drawOrder": null, "icon": null, "begin2": null, "end2": null, "SUP ": null, "SUP HA ": null, "origen": "Poligonos de Pao", "archivo": "poligono_hopelchen_191 (1).kml", "SUP HA": null, "SUP HECTAREA ": null, "snippet": null }, "geometry": { "type": "Polygon", "coordinates": [ [ [ -89.799305555555549, 19.708111111111112, 0.0 ], [ -89.79891666666667, 19.707916666666666, 0.0 ], [ -89.798666666666662, 19.708416666666665, 0.0 ], [ -89.79838888888888, 19.7085, 0.0 ], [ -89.79825, 19.708305555555555, 0.0 ], [ -89.798027777777776, 19.708166666666667, 0.0 ], [ -89.797305555555553, 19.708055555555553, 0.0 ], [ -89.798555555555552, 19.706222222222223, 0.0 ], [ -89.799416666666659, 19.707777777777778, 0.0 ], [ -89.799305555555549, 19.708111111111112, 0.0 ] ] ] } },
{ "type": "Feature", "properties": { "id": null, "Name": "Polígono 1", "description": null, "timestamp": null, "begin": null, "end": null, "altitudeMode": null, "tessellate": -1, "extrude": 0, "visibility": -1, "drawOrder": null, "icon": null, "begin2": null, "end2": null, "SUP ": null, "SUP HA ": null, "origen": "Poligonos de Pao", "archivo": "poligono_1_bacalar_00322 (1).kml", "SUP HA": null, "SUP HECTAREA ": null, "snippet": null }, "geometry": { "type": "Polygon", "coordinates": [ [ [ -88.465485457259803, 18.893980447973593, 0.0 ], [ -88.466491695913319, 18.893981546262712, 0.0 ], [ -88.466423628068569, 18.894885626710266, 0.0 ], [ -88.465417383982455, 18.894884528418419, 0.0 ], [ -88.465485457259803, 18.893980447973593, 0.0 ] ] ] } },
{ "type": "Feature", "properties": { "id": null, "Name": "Polígono 2", "description": null, "timestamp": null, "begin": null, "end": null, "altitudeMode": null, "tessellate": -1, "extrude": 0, "visibility": -1, "drawOrder": null, "icon": null, "begin2": null, "end2": null, "SUP ": null, "SUP HA ": null, "origen": "Poligonos de Pao", "archivo": "poligono_2_bacalar_00322 (1).kml", "SUP HA": null, "SUP HECTAREA ": null, "snippet": null }, "geometry": { "type": "Polygon", "coordinates": [ [ [ -88.465417383982455, 18.894884528418419, 0.0 ], [ -88.466423628068569, 18.894885626710266, 0.0 ], [ -88.466365130719993, 18.895798667010343, 0.0 ], [ -88.467305013430448, 18.895809319246982, 0.0 ], [ -88.467318600226861, 18.896279054291774, 0.0 ], [ -88.466388443179795, 18.89629543183359, 0.0 ], [ -88.466367757350099, 18.897190102800028, 0.0 ], [ -88.465389897593852, 18.89717974576266, 0.0 ], [ -88.465417383982455, 18.894884528418419, 0.0 ] ] ] } },
{ "type": "Feature", "properties": { "id": null, "Name": "Polígono 3", "description": null, "timestamp": null, "begin": null, "end": null, "altitudeMode": null, "tessellate": -1, "extrude": 0, "visibility": -1, "drawOrder": null, "icon": null, "begin2": null, "end2": null, "SUP ": null, "SUP HA ": null, "origen": "Poligonos de Pao", "archivo": "poligono_3_bacalar_00322 (2).kml", "SUP HA": null, "SUP HECTAREA ": null, "snippet": null }, "geometry": { "type": "Polygon", "coordinates": [ [ [ -88.466388443179795, 18.89629543183359, 0.0 ], [ -88.467318600226861, 18.896279054291774, 0.0 ], [ -88.467298313080121, 18.897218899060753, 0.0 ], [ -88.466367757350099, 18.897190102800028, 0.0 ], [ -88.466388443179795, 18.89629543183359, 0.0 ] ] ] } }
]
}
